[{"OBJECT_NAME":"STARLINK-30525","OBJECT_ID":"2023-153X","EPOCH":"2026-03-09T00:02:31.628544","MEAN_MOTION":15.26741269,"ECCENTRICITY":0.00018693,"INCLINATION":43.0059,"RA_OF_ASC_NODE":70.7104,"ARG_OF_PERICENTER":287.6945,"MEAN_ANOMALY":72.3702,"EPHEMERIS_TYPE":0,"CLASSIFICATION_TYPE":"U","NORAD_CAT_ID":58012,"ELEMENT_SET_NO":999,"REV_AT_EPOCH":13479,"BSTAR":4.6237044e-5,"MEAN_MOTION_DOT":9.8e-6,"MEAN_MOTION_DDOT":0},{"OBJECT_NAME":"TEVEL2-2","OBJECT_ID":"2025-052K","EPOCH":"2026-03-09T15:33:48.895776","MEAN_MOTION":15.30343745,"ECCENTRICITY":0.0004693,"INCLINATION":97.3987,"RA_OF_ASC_NODE":324.77,"ARG_OF_PERICENTER":105.793,"MEAN_ANOMALY":254.3828,"EPHEMERIS_TYPE":0,"CLASSIFICATION_TYPE":"U","NORAD_CAT_ID":63219,"ELEMENT_SET_NO":999,"REV_AT_EPOCH":5485,"BSTAR":0.00069428,"MEAN_MOTION_DOT":0.00020339,"MEAN_MOTION_DDOT":0}]
