STARLINK-30525          
1 58012U 23153X   26068.00175496  .00000980  00000+0  46237-4 0  9996
2 58012  43.0059  70.7104 0001869 287.6945  72.3702 15.26741269134791
TEVEL2-2                
1 63219U 25052K   26068.64848259  .00020339  00000+0  69428-3 0  9991
2 63219  97.3987 324.7700 0004693 105.7930 254.3828 15.30343745 54855
